{"type": "FeatureCollection", "features": [ {"type": "Feature", "properties": {"norad_id": 66916, "name": "HULIANWANG DIGUI-106", "group": "last-30-days", "lat": -39.80401459117714, "lon": 65.23773937707635, "alt_km": 876.4462779789228, "timestamp": "2025-12-14T14:39:28.134562+00:00", "meta": {"OBJECT_NAME": "HULIANWANG DIGUI-106", "OBJECT_ID": "2025-285B", "EPOCH": "2025-12-13T23:33:41.200704", "MEAN_MOTION": 14.04834865, "ECCENTRICITY": 0.00069622, "INCLINATION": 50.0051, "RA_OF_ASC_NODE": 112.1935, "ARG_OF_PERICENTER": 280.5388, "MEAN_ANOMALY": 79.4732, "EPHEMERIS_TYPE": 0, "CLASSIFICATION_TYPE": "U", "NORAD_CAT_ID": 66916, "ELEMENT_SET_NO": 999, "REV_AT_EPOCH": 108, "BSTAR": 0.00015535046, "MEAN_MOTION_DOT": 9.9e-07, "MEAN_MOTION_DDOT": 0}, "tle": {"line1": "1 66916U 25285B   25347.98172686  .00000099  00000+0  15535-3 0  9997", "line2": "2 66916  50.0051 112.1935 0006962 280.5388  79.4732 14.04834865  1084"}}, "geometry": {"type": "Point", "coordinates": [65.23773937707635, -39.80401459117714]}}, {"type": "Feature", "properties": {"norad_id": 66917, "name": "HULIANWANG DIGUI-107", "group": "last-30-days", "lat": -36.855640814684705, "lon": 70.61019252294072, "alt_km": 873.2321190430894, "timestamp": "2025-12-14T14:39:28.134572+00:00", "meta": {"OBJECT_NAME": "HULIANWANG DIGUI-107", "OBJECT_ID": "2025-285C", "EPOCH": "2025-12-13T23:32:41.966592", "MEAN_MOTION": 14.05580859, "ECCENTRICITY": 0.00075297, "INCLINATION": 50.0019, "RA_OF_ASC_NODE": 112.1856, "ARG_OF_PERICENTER": 289.3996, "MEAN_ANOMALY": 70.6095, "EPHEMERIS_TYPE": 0, "CLASSIFICATION_TYPE": "U", "NORAD_CAT_ID": 66917, "ELEMENT_SET_NO": 999, "REV_AT_EPOCH": 108, "BSTAR": 8.617802e-06, "MEAN_MOTION_DOT": -1.38e-06, "MEAN_MOTION_DDOT": 0}, "tle": {"line1": "1 66917U 25285C   25347.98104128 -.00000138  00000+0  86178-5 0  9992", "line2": "2 66917  50.0019 112.1856 0007529 289.3996  70.6095 14.05580859  1080"}}, "geometry": {"type": "Point", "coordinates": [70.61019252294072, -36.855640814684705]}}, {"type": "Feature", "properties": {"norad_id": 66918, "name": "HULIANWANG DIGUI-108", "group": "last-30-days", "lat": -34.62395775792067, "lon": 74.1817413929338, "alt_km": 873.6558250909202, "timestamp": "2025-12-14T14:39:28.134581+00:00", "meta": {"OBJECT_NAME": "HULIANWANG DIGUI-108", "OBJECT_ID": "2025-285D", "EPOCH": "2025-12-13T23:31:44.551200", "MEAN_MOTION": 14.05705809, "ECCENTRICITY": 0.00064868, "INCLINATION": 50.0039, "RA_OF_ASC_NODE": 112.1845, "ARG_OF_PERICENTER": 284.479, "MEAN_ANOMALY": 75.5396, "EPHEMERIS_TYPE": 0, "CLASSIFICATION_TYPE": "U", "NORAD_CAT_ID": 66918, "ELEMENT_SET_NO": 999, "REV_AT_EPOCH": 108, "BSTAR": 0.00014624626, "MEAN_MOTION_DOT": 8.8e-07, "MEAN_MOTION_DDOT": 0}, "tle": {"line1": "1 66918U 25285D   25347.98037675  .00000088  00000+0  14625-3 0  9994", "line2": "2 66918  50.0039 112.1845 0006486 284.4790  75.5396 14.05705809  1082"}}, "geometry": {"type": "Point", "coordinates": [74.1817413929338, -34.62395775792067]}}, {"type": "Feature", "properties": {"norad_id": 66919, "name": "HULIANWANG DIGUI-109", "group": "last-30-days", "lat": -34.36522744720109, "lon": 74.57957568950158, "alt_km": 872.3061389716713, "timestamp": "2025-12-14T14:39:28.134591+00:00", "meta": {"OBJECT_NAME": "HULIANWANG DIGUI-109", "OBJECT_ID": "2025-285E", "EPOCH": "2025-12-13T23:31:37.572672", "MEAN_MOTION": 14.05717464, "ECCENTRICITY": 0.000789, "INCLINATION": 50.0063, "RA_OF_ASC_NODE": 112.1877, "ARG_OF_PERICENTER": 295.9066, "MEAN_ANOMALY": 64.1025, "EPHEMERIS_TYPE": 0, "CLASSIFICATION_TYPE": "U", "NORAD_CAT_ID": 66919, "ELEMENT_SET_NO": 999, "REV_AT_EPOCH": 108, "BSTAR": 0.00015433885, "MEAN_MOTION_DOT": 1.01e-06, "MEAN_MOTION_DDOT": 0}, "tle": {"line1": "1 66919U 25285E   25347.98029598  .00000101  00000+0  15434-3 0  9995", "line2": "2 66919  50.0063 112.1877 0007890 295.9066  64.1025 14.05717464  1081"}}, "geometry": {"type": "Point", "coordinates": [74.57957568950158, -34.36522744720109]}}, {"type": "Feature", "properties": {"norad_id": 66920, "name": "HULIANWANG DIGUI-110", "group": "last-30-days", "lat": -31.848816326517312, "lon": 78.1817785481099, "alt_km": 873.2869910101917, "timestamp": "2025-12-14T14:39:28.134601+00:00", "meta": {"OBJECT_NAME": "HULIANWANG DIGUI-110", "OBJECT_ID": "2025-285F", "EPOCH": "2025-12-13T23:30:36.008352", "MEAN_MOTION": 14.05851669, "ECCENTRICITY": 0.00058509, "INCLINATION": 50.0096, "RA_OF_ASC_NODE": 112.1881, "ARG_OF_PERICENTER": 292.7365, "MEAN_ANOMALY": 67.2922, "EPHEMERIS_TYPE": 0, "CLASSIFICATION_TYPE": "U", "NORAD_CAT_ID": 66920, "ELEMENT_SET_NO": 999, "REV_AT_EPOCH": 108, "BSTAR": 0.00014206592, "MEAN_MOTION_DOT": 8.1e-07, "MEAN_MOTION_DDOT": 0}, "tle": {"line1": "1 66920U 25285F   25347.97958343  .00000081  00000+0  14207-3 0  9999", "line2": "2 66920  50.0096 112.1881 0005850 292.7365  67.2922 14.05851669  1081"}}, "geometry": {"type": "Point", "coordinates": [78.1817785481099, -31.848816326517312]}}, {"type": "Feature", "properties": {"norad_id": 66921, "name": "HULIANWANG DIGUI-111", "group": "last-30-days", "lat": -31.19081113656725, "lon": 79.07060734648842, "alt_km": 872.2030388693474, "timestamp": "2025-12-14T14:39:28.134613+00:00", "meta": {"OBJECT_NAME": "HULIANWANG DIGUI-111", "OBJECT_ID": "2025-285G", "EPOCH": "2025-12-13T23:30:19.998432", "MEAN_MOTION": 14.05885367, "ECCENTRICITY": 0.00069934, "INCLINATION": 50.0112, "RA_OF_ASC_NODE": 112.1893, "ARG_OF_PERICENTER": 299.1649, "MEAN_ANOMALY": 60.8556, "EPHEMERIS_TYPE": 0, "CLASSIFICATION_TYPE": "U", "NORAD_CAT_ID": 66921, "ELEMENT_SET_NO": 999, "REV_AT_EPOCH": 108, "BSTAR": 0.00014794536, "MEAN_MOTION_DOT": 9.1e-07, "MEAN_MOTION_DDOT": 0}, "tle": {"line1": "1 66921U 25285G   25347.97939813  .00000091  00000+0  14795-3 0  9994", "line2": "2 66921  50.0112 112.1893 0006993 299.1649  60.8556 14.05885367  1083"}}, "geometry": {"type": "Point", "coordinates": [79.07060734648842, -31.19081113656725]}}, {"type": "Feature", "properties": {"norad_id": 66922, "name": "HULIANWANG DIGUI-112", "group": "last-30-days", "lat": -28.914620639161672, "lon": 81.9754103055768, "alt_km": 871.6217137637768, "timestamp": "2025-12-14T14:39:28.134623+00:00", "meta": {"OBJECT_NAME": "HULIANWANG DIGUI-112", "OBJECT_ID": "2025-285H", "EPOCH": "2025-12-13T23:29:26.457216", "MEAN_MOTION": 14.06000421, "ECCENTRICITY": 0.00069499, "INCLINATION": 50.0085, "RA_OF_ASC_NODE": 112.1814, "ARG_OF_PERICENTER": 305.4431, "MEAN_ANOMALY": 54.5825, "EPHEMERIS_TYPE": 0, "CLASSIFICATION_TYPE": "U", "NORAD_CAT_ID": 66922, "ELEMENT_SET_NO": 999, "REV_AT_EPOCH": 108, "BSTAR": -2.385246e-06, "MEAN_MOTION_DOT": -1.56e-06, "MEAN_MOTION_DDOT": 0}, "tle": {"line1": "1 66922U 25285H   25347.97877844 -.00000156  00000+0 -23852-5 0  9990", "line2": "2 66922  50.0085 112.1814 0006949 305.4431  54.5825 14.06000421  1087"}}, "geometry": {"type": "Point", "coordinates": [81.9754103055768, -28.914620639161672]}}, {"type": "Feature", "properties": {"norad_id": 66923, "name": "HULIANWANG DIGUI-113", "group": "last-30-days", "lat": -27.734136308951246, "lon": 83.40723988783103, "alt_km": 872.5580029789871, "timestamp": "2025-12-14T14:39:28.134633+00:00", "meta": {"OBJECT_NAME": "HULIANWANG DIGUI-113", "OBJECT_ID": "2025-285J", "EPOCH": "2025-12-13T21:46:38.655840", "MEAN_MOTION": 14.0605692, "ECCENTRICITY": 0.00054169, "INCLINATION": 50.0084, "RA_OF_ASC_NODE": 112.4714, "ARG_OF_PERICENTER": 300.1513, "MEAN_ANOMALY": 59.8855, "EPHEMERIS_TYPE": 0, "CLASSIFICATION_TYPE": "U", "NORAD_CAT_ID": 66923, "ELEMENT_SET_NO": 999, "REV_AT_EPOCH": 107, "BSTAR": 0.00015753893, "MEAN_MOTION_DOT": 1.08e-06, "MEAN_MOTION_DDOT": 0}, "tle": {"line1": "1 66923U 25285J   25347.90739185  .00000108  00000+0  15754-3 0  9994", "line2": "2 66923  50.0084 112.4714 0005416 300.1513  59.8855 14.06056920  1075"}}, "geometry": {"type": "Point", "coordinates": [83.40723988783103, -27.734136308951246]}}, {"type": "Feature", "properties": {"norad_id": 66924, "name": "CZ-8A R/B", "group": "last-30-days", "lat": -24.74738561847177, "lon": 85.42440319951024, "alt_km": 864.0886613271014, "timestamp": "2025-12-14T14:39:28.134644+00:00", "meta": {"OBJECT_NAME": "CZ-8A R/B", "OBJECT_ID": "2025-285K", "EPOCH": "2025-12-13T17:01:08.437152", "MEAN_MOTION": 14.30502365, "ECCENTRICITY": 0.01193336, "INCLINATION": 50.0066, "RA_OF_ASC_NODE": 112.028, "ARG_OF_PERICENTER": 110.1527, "MEAN_ANOMALY": 251.2272, "EPHEMERIS_TYPE": 0, "CLASSIFICATION_TYPE": "U", "NORAD_CAT_ID": 66924, "ELEMENT_SET_NO": 999, "REV_AT_EPOCH": 106, "BSTAR": 8.3497377e-05, "MEAN_MOTION_DOT": 7e-07, "MEAN_MOTION_DDOT": 0}, "tle": {"line1": "1 66924U 25285K   25347.70912543  .00000070  00000+0  83497-4 0  9992", "line2": "2 66924  50.0066 112.0280 0119333 110.1527 251.2272 14.30502365  1064"}}, "geometry": {"type": "Point", "coordinates": [85.42440319951024, -24.74738561847177]}}, {"type": "Feature", "properties": {"norad_id": 66925, "name": "STARLINK-35945", "group": "last-30-days", "lat": 43.55822187063175, "lon": 86.67523990665364, "alt_km": 287.7930569428536, "timestamp": "2025-12-14T14:39:28.134654+00:00", "meta": {"OBJECT_NAME": "STARLINK-35945", "OBJECT_ID": "2025-286A", "EPOCH": "2025-12-13T20:00:03.000384", "MEAN_MOTION": 15.94819632, "ECCENTRICITY": 6.915e-05, "INCLINATION": 53.1575, "RA_OF_ASC_NODE": 45.1687, "ARG_OF_PERICENTER": 72.1744, "MEAN_ANOMALY": 204.2185, "EPHEMERIS_TYPE": 0, "CLASSIFICATION_TYPE": "U", "NORAD_CAT_ID": 66925, "ELEMENT_SET_NO": 999, "REV_AT_EPOCH": 216, "BSTAR": -0.0032441039, "MEAN_MOTION_DOT": -0.01276938, "MEAN_MOTION_DDOT": 0.00049047029}, "tle": {"line1": "1 66925U 25286A   25347.83336806 -.01276938  49047-3 -32441-2 0  9990", "line2": "2 66925  53.1575  45.1687 0000691  72.1744 204.2185 15.94819632  2167"}}, "geometry": {"type": "Point", "coordinates": [86.67523990665364, 43.55822187063175]}}]}